{"colleges" : [{"id":1,"coll_name":"UNIVERSITY DEPARTMENTS OF ANNA UNIVERSITY, CHENNAI - CEG CAMPUS                 ","addr_l1":"Sardar Patel Road, Guindy","addr_l2":"Saidapet Taluk, Chennai District.","state":"Tamilnadu","pin_code":600025,"catcode":0,"coll_gender":1},{"id":2,"coll_name":"UNIVERSITY DEPARTMENTS OF ANNA UNIVERSITY, CHENNAI - ACT CAMPUS                 ","addr_l1":"Sardar Patel Road, Guindy","addr_l2":"Saidapet Taluk, Chennai District.","state":"Tamilnadu","pin_code":600025,"catcode":0,"coll_gender":1},{"id":4,"coll_name":"UNIVERSITY DEPARTMENTS OF ANNA UNIVERSITY, CHENNAI - MIT CAMPUS                 ","addr_l1":"Chrompet","addr_l2":"Tambaram Taluk, Kancheepuram District.","state":"Tamilnadu","pin_code":600044,"catcode":0,"coll_gender":1},{"id":1013,"coll_name":"UNIVERSITY COLLEGE OF ENGINEERING, VILLUPURAM                                   ","addr_l1":"","addr_l2":"Villupuram Taluk, Villupuram District.","state":"Tamilnadu","pin_code":605103,"catcode":1,"coll_gender":1},{"id":1014,"coll_name":"UNIVERSITY COLLEGE OF ENGINEERING, TINDIVANAM                                   ","addr_l1":"","addr_l2":"Tindivanam Taluk, Villupuram District.","state":"Tamilnadu","pin_code":604001,"catcode":1,"coll_gender":1},{"id":1015,"coll_name":"UNIVERSITY COLLEGE OF ENGINEERING, ARNI                                         ","addr_l1":"Arni To Devikapuram Road, Thatchur, Arni","addr_l2":"Arni Taluk, Thiruvannamalai District.","state":"Tamilnadu","pin_code":632326,"catcode":1,"coll_gender":1},{"id":1026,"coll_name":"UNIVERSITY COLLEGE OF ENGINEERING, KANCHIPURAM                                  ","addr_l1":"Nh-4, Chennai Bangalore Highway, Ponnerikkarai","addr_l2":"Kanchipuram Taluk, Kancheepuram District.","state":"Tamilnadu","pin_code":631552,"catcode":1,"coll_gender":1},{"id":1101,"coll_name":"AALIM MUHAMMED SALEGH COLLEGE OF ENGINEERING","addr_l1":"Nizara Educational Campus,","addr_l2":"Avadi Taluk, Thiruvallur District.","state":"Tamilnadu","pin_code":600055,"catcode":4,"coll_gender":1},{"id":1102,"coll_name":"BHAJARANG ENGINEERING COLLEGE","addr_l1":"Near Avadi, Veppampattu (Rs),","addr_l2":"Thiruvallur Taluk, Thiruvallur District.","state":"Tamilnadu","pin_code":602024,"catcode":4,"coll_gender":1},{"id":1106,"coll_name":"JAYA ENGINEERING COLLEGE","addr_l1":"C.T.H.Road, Prakash Nagar, Near Avadi","addr_l2":"Poonamallee Taluk, Thiruvallur District.","state":"Tamilnadu","pin_code":602024,"catcode":4,"coll_gender":1},{"id":1107,"coll_name":"JAYA INSTITUTE OF TECHNOLOGY","addr_l1":"Tiruvallur - Tiruttani NH  Road,","addr_l2":"Tiruttani Taluk, Thiruvallur District.","state":"Tamilnadu","pin_code":631204,"catcode":4,"coll_gender":1},{"id":1110,"coll_name":"PRATHYUSHA ENGINEERING COLLEGE","addr_l1":"Poonamallee-Thiruvallur Rd,","addr_l2":"Tiruvallur Taluk, Thiruvallur District.","state":"Tamilnadu","pin_code":602025,"catcode":4,"coll_gender":1},{"id":1112,"coll_name":"R.M.D. ENGINEERING COLLEGE                                                      ","addr_l1":"R.S.M. Nagar, G.N.T.Road,","addr_l2":"Gummidipoondi Taluk, Thiruvallur District.","state":"Tamilnadu","pin_code":601206,"catcode":4,"coll_gender":1},{"id":1113,"coll_name":"R.M.K. ENGINEERING COLLEGE                                                      ","addr_l1":"R.S.M. Nagar,","addr_l2":"Gummidipoondi Taluk, Thiruvallur District.","state":"Tamilnadu","pin_code":601206,"catcode":4,"coll_gender":1},{"id":1114,"coll_name":"S.A. ENGINEERING COLLEGE","addr_l1":"Poonamallee-Avadi Main Road,","addr_l2":"Poonamallee Taluk, Thiruvallur District.","state":"Tamilnadu","pin_code":600077,"catcode":4,"coll_gender":1},{"id":1115,"coll_name":"SRIRAM ENGINEERING COLLEGE","addr_l1":"","addr_l2":"Tiruvallur Taluk, Thiruvallur District.","state":"Tamilnadu","pin_code":602024,"catcode":4,"coll_gender":1},{"id":1116,"coll_name":"SRI VENKATESWARA COLLEGE OF ENGINEERING AND TECHNOLOGY","addr_l1":"","addr_l2":"Thiruvallur Taluk, Thiruvallur District.","state":"Tamilnadu","pin_code":631203,"catcode":4,"coll_gender":1},{"id":1118,"coll_name":"VEL TECH MULTI TECH DR.RANGARAJAN DR.SAKUNTHALA ENGINEERING COLLEGE             ","addr_l1":"42, Avadi - Vel Tech  Road,","addr_l2":"Avadi Taluk, Thiruvallur District.","state":"Tamilnadu","pin_code":600062,"catcode":4,"coll_gender":1},{"id":1120,"coll_name":"VELAMMAL ENGINEERING COLLEGE                                                    ","addr_l1":"Velammal Newgen Park, Ambattur- Red Hills Road","addr_l2":"Madhavaram Taluk, Thiruvallur District.","state":"Tamilnadu","pin_code":600066,"catcode":4,"coll_gender":1},{"id":1121,"coll_name":"SRI VENKATESWARA INSTITUTE OF SCIENCE AND TECHNOLOGY","addr_l1":"","addr_l2":"Tiruvallur Taluk, Thiruvallur District.","state":"Tamilnadu","pin_code":631203,"catcode":4,"coll_gender":1},{"id":1122,"coll_name":"VEL TECH HIGH TECH DR.RANGARAJAN DR.SAKUNTHALA ENGINEERING COLLEGE              ","addr_l1":"60, Avadi-Veltech  Road,","addr_l2":"Ambattur Taluk, Thiruvallur District.","state":"Tamilnadu","pin_code":600062,"catcode":4,"coll_gender":1},{"id":1123,"coll_name":"GOJAN SCHOOL OF BUSINESS AND TECHNOLOGY                                         ","addr_l1":"80 Feet Road, Edapalayam, Redhills","addr_l2":"Ponneri Taluk, Thiruvallur District.","state":"Tamilnadu","pin_code":600052,"catcode":4,"coll_gender":1},{"id":1124,"coll_name":"SAMS COLLEGE OF ENGINEERING AND TECHNOLOGY                                      ","addr_l1":"# 82, Near Periyapalayam,","addr_l2":"Uthukottai Taluk, Thiruvallur District.","state":"Tamilnadu","pin_code":601102,"catcode":4,"coll_gender":1},{"id":1125,"coll_name":"PMR ENGINEERING COLLEGE                                                         ","addr_l1":"","addr_l2":"Ambattur Taluk, Thiruvallur District.","state":"Tamilnadu","pin_code":600095,"catcode":4,"coll_gender":1},{"id":1126,"coll_name":"JNN INSTITUTE OF ENGINEERING                                                    ","addr_l1":"90, Ushaa Garden, Chennai-Periyapalayam High Road, Near Redhills","addr_l2":"Uthukottai Taluk, Thiruvallur District.","state":"Tamilnadu","pin_code":601102,"catcode":4,"coll_gender":1},{"id":1127,"coll_name":"St. PETER'S COLLEGE OF ENGINEERING AND TECHNOLOGY                               ","addr_l1":"College Road,   Avadi,  Paruthipattu","addr_l2":"Poonamallee Taluk, Thiruvallur District.","state":"Tamilnadu","pin_code":600054,"catcode":4,"coll_gender":1},{"id":1128,"coll_name":"R.M.K. COLLEGE OF ENGINEERING AND TECHNOLOGY                                    ","addr_l1":"R.S.M. Nagar, Puduvoyal, Gummidipoondi (T.K)","addr_l2":"Gummidipoondi Taluk, Thiruvallur District.","state":"Tamilnadu","pin_code":601206,"catcode":4,"coll_gender":1},{"id":1131,"coll_name":"VEL TECH                                                                        ","addr_l1":"60, Avadi- Vel Tech Road,","addr_l2":"Avadi Taluk, Thiruvallur District.","state":"Tamilnadu","pin_code":600062,"catcode":4,"coll_gender":1},{"id":1133,"coll_name":"ANNAI VEILANKANNI'S COLLEGE OF ENGINEERING                                      ","addr_l1":"No.33,Gandhi Rd, Nedungundram, Near Perungalathur Railway Station","addr_l2":"Chengalpattu Taluk, Kancheepuram District.","state":"Tamilnadu","pin_code":600127,"catcode":4,"coll_gender":1},{"id":1136,"coll_name":"VEDHANTHA INSTITUTE OF TECHNOLOGY                                               ","addr_l1":"Vedhantha Nagar, Trichy-Chennai  NH 45,","addr_l2":"Ulundurpet Taluk, Villupuram District.","state":"Tamilnadu","pin_code":606115,"catcode":4,"coll_gender":1},{"id":1137,"coll_name":"ANNAI MIRA COLLEGE OF ENGINEERING AND TECHNOLOGY                                ","addr_l1":"Nh-46, Chennai-Bengaluru Highways,","addr_l2":"Walaja Taluk, Vellore District.","state":"Tamilnadu","pin_code":632517,"catcode":4,"coll_gender":1},{"id":1140,"coll_name":"JEPPIAAR INSTITUTE OF TECHNOLOGY                                                ","addr_l1":"Sunguvarchatram,","addr_l2":"Sriperumbudur Taluk, Kancheepuram District.","state":"Tamilnadu","pin_code":631604,"catcode":4,"coll_gender":1},{"id":1141,"coll_name":"R.V.S. PADHMAVATHY COLLEGE OF ENGINEERING & TECHNOLOGY","addr_l1":"RVS Nagar","addr_l2":"Gummidipoondi Taluk, Thiruvallur District.","state":"Tamilnadu","pin_code":601202,"catcode":4,"coll_gender":1},{"id":1143,"coll_name":"KUMARAN INSTITUTE OF TECHNOLOGY                                                 ","addr_l1":"Near Nandiambakkam Railway Station, Nandiabakkam","addr_l2":"Ponneri Taluk, Thiruvallur District.","state":"Tamilnadu","pin_code":600120,"catcode":4,"coll_gender":1},{"id":1149,"coll_name":"St. JOSEPH'S INSTITUTE OF TECHNOLOGY                                            ","addr_l1":"Old Mamallapuram Road","addr_l2":"Sholinganallur Taluk, Kancheepuram District.","state":"Tamilnadu","pin_code":600119,"catcode":4,"coll_gender":1},{"id":1150,"coll_name":"SRI JAYARAM INSTITUTE OF ENGINEERING AND TECHNOLOGY                             ","addr_l1":"51N, Elavur, 58N, Natham,","addr_l2":"Gummidipoondi Taluk, Thiruvallur District.","state":"Tamilnadu","pin_code":601201,"catcode":4,"coll_gender":1},{"id":1157,"coll_name":"SHRI SITHESWARAR ENGINEERING COLLEGE                                            ","addr_l1":"Kalavai Road, Poongodu,","addr_l2":"Arcot Taluk, Vellore District.","state":"Tamilnadu","pin_code":632503,"catcode":4,"coll_gender":1},{"id":1201,"coll_name":"ARIGNAR ANNA INSTITUTE OF SCIENCE AND TECHNOLOGY                                ","addr_l1":"Chennai-Bangalore Highway,","addr_l2":"Sriperumbudur Taluk, Kancheepuram District.","state":"Tamilnadu","pin_code":602117,"catcode":4,"coll_gender":1},{"id":1202,"coll_name":"D M I COLLEGE OF ENGINEERING","addr_l1":"Mevallur Kuppam, 'B' Village","addr_l2":"Sriperumbudur Taluk, Kancheepuram District.","state":"Tamilnadu","pin_code":600123,"catcode":4,"coll_gender":1}]}
